[{"OBJECT_NAME":"CONTINUUM-1","OBJECT_ID":"2023-001AN","EPOCH":"2026-03-09T23:17:35.458656","MEAN_MOTION":15.27981258,"ECCENTRICITY":0.00109493,"INCLINATION":97.3456,"RA_OF_ASC_NODE":133.3964,"ARG_OF_PERICENTER":60.1976,"MEAN_ANOMALY":300.0351,"EPHEMERIS_TYPE":0,"CLASSIFICATION_TYPE":"U","NORAD_CAT_ID":55045,"ELEMENT_SET_NO":999,"REV_AT_EPOCH":17709,"BSTAR":0.00052859897,"MEAN_MOTION_DOT":0.00014395,"MEAN_MOTION_DDOT":0},{"OBJECT_NAME":"STARLINK-32940","OBJECT_ID":"2025-075W","EPOCH":"2026-03-09T22:07:39.508320","MEAN_MOTION":15.27610947,"ECCENTRICITY":0.00017829,"INCLINATION":43.0005,"RA_OF_ASC_NODE":269.2315,"ARG_OF_PERICENTER":288.3145,"MEAN_ANOMALY":71.7513,"EPHEMERIS_TYPE":0,"CLASSIFICATION_TYPE":"U","NORAD_CAT_ID":63568,"ELEMENT_SET_NO":999,"REV_AT_EPOCH":5196,"BSTAR":0.0010463237,"MEAN_MOTION_DOT":0.0002867,"MEAN_MOTION_DDOT":0}]
